[{"OBJECT_NAME":"STARLINK-4791","OBJECT_ID":"2022-119BC","EPOCH":"2026-03-09T20:27:49.476672","MEAN_MOTION":15.08835935,"ECCENTRICITY":0.00011108,"INCLINATION":53.2174,"RA_OF_ASC_NODE":298.1232,"ARG_OF_PERICENTER":93.2066,"MEAN_ANOMALY":266.9053,"EPHEMERIS_TYPE":0,"CLASSIFICATION_TYPE":"U","NORAD_CAT_ID":53936,"ELEMENT_SET_NO":999,"REV_AT_EPOCH":19207,"BSTAR":-7.423478e-6,"MEAN_MOTION_DOT":-4.06e-6,"MEAN_MOTION_DDOT":0},{"OBJECT_NAME":"STARLING 3","OBJECT_ID":"2023-100D","EPOCH":"2026-03-09T22:41:57.048288","MEAN_MOTION":15.11145977,"ECCENTRICITY":0.00066311,"INCLINATION":99.5096,"RA_OF_ASC_NODE":65.6477,"ARG_OF_PERICENTER":76.1122,"MEAN_ANOMALY":284.0839,"EPHEMERIS_TYPE":0,"CLASSIFICATION_TYPE":"U","NORAD_CAT_ID":57389,"ELEMENT_SET_NO":999,"REV_AT_EPOCH":14507,"BSTAR":0.00051487914,"MEAN_MOTION_DOT":8.551e-5,"MEAN_MOTION_DDOT":0}]
